{
    "links": {
        "self": "http://www.neowsapp.com/rest/v1/neo/3799684?api_key=iIulBulltgU6a56xZRHN4H3l9WmuAYTsLGpBGhQ2"
    },
    "id": "3799684",
    "neo_reference_id": "3799684",
    "name": "(2018 DG)",
    "designation": "2018 DG",
    "nasa_jpl_url": "http://ssd.jpl.nasa.gov/sbdb.cgi?sstr=3799684",
    "absolute_magnitude_h": 23.9,
    "estimated_diameter": {
        "kilometers": {
            "estimated_diameter_min": 0.04411182,
            "estimated_diameter_max": 0.0986370281
        },
        "meters": {
            "estimated_diameter_min": 44.1118199997,
            "estimated_diameter_max": 98.6370281305
        },
        "miles": {
            "estimated_diameter_min": 0.0274098057,
            "estimated_diameter_max": 0.0612901888
        },
        "feet": {
            "estimated_diameter_min": 144.7238235278,
            "estimated_diameter_max": 323.6123073718
        }
    },
    "is_potentially_hazardous_asteroid": false,
    "close_approach_data": [
        {
            "close_approach_date": "2018-02-18",
            "close_approach_date_full": "2018-Feb-18 22:31",
            "epoch_date_close_approach": 1518993060000,
            "relative_velocity": {
                "kilometers_per_second": "12.1703850318",
                "kilometers_per_hour": "43813.3861145754",
                "miles_per_hour": "27223.9342776927"
            },
            "miss_distance": {
                "astronomical": "0.0661617366",
                "lunar": "25.7369155374",
                "kilometers": "9897654.870861042",
                "miles": "6150117.5520126996"
            },
            "orbiting_body": "Earth"
        },
        {
            "close_approach_date": "2152-07-07",
            "close_approach_date_full": "2152-Jul-07 07:10",
            "epoch_date_close_approach": 5759622600000,
            "relative_velocity": {
                "kilometers_per_second": "6.5156324758",
                "kilometers_per_hour": "23456.276912724",
                "miles_per_hour": "14574.8182850201"
            },
            "miss_distance": {
                "astronomical": "1.9603814698",
                "lunar": "762.5883917522",
                "kilometers": "293268892.269549326",
                "miles": "182228839.5927236588"
            },
            "orbiting_body": "Juptr"
        }
    ],
    "orbital_data": {
        "orbit_id": "8",
        "orbit_determination_date": "2018-03-15 06:31:42",
        "first_observation_date": "2018-02-18",
        "last_observation_date": "2018-03-14",
        "data_arc_in_days": 24,
        "observations_used": 75,
        "orbit_uncertainty": "7",
        "minimum_orbit_intersection": ".0564482",
        "jupiter_tisserand_invariant": "3.214",
        "epoch_osculation": "2459000.5",
        "eccentricity": ".5725087505909818",
        "semi_major_axis": "2.425305421807828",
        "inclination": "17.42600149833574",
        "ascending_node_longitude": "149.5760387070664",
        "orbital_period": "1379.583791687985",
        "perihelion_distance": "1.036796844967094",
        "perihelion_argument": "347.1733959208389",
        "aphelion_distance": "3.813813998648561",
        "perihelion_time": "2459538.479463282201",
        "mean_anomaly": "219.6151912276202",
        "mean_motion": ".260948267273801",
        "equinox": "J2000",
        "orbit_class": {
            "orbit_class_type": "AMO",
            "orbit_class_description": "Near-Earth asteroid orbits similar to that of 1221 Amor",
            "orbit_class_range": "1.017 AU < q (perihelion) < 1.3 AU"
        }
    },
    "is_sentry_object": false
}